{
  "links" : {
    "next" : "https://api.nasa.gov/neo/rest/v1/feed?start_date=2002-10-23&end_date=2002-10-23&detailed=true&api_key=t0TVs3DtDT2H8Oy2Zy8m2eVrNsAVKAexjcZXUckd",
    "prev" : "https://api.nasa.gov/neo/rest/v1/feed?start_date=2002-10-21&end_date=2002-10-21&detailed=true&api_key=t0TVs3DtDT2H8Oy2Zy8m2eVrNsAVKAexjcZXUckd",
    "self" : "https://api.nasa.gov/neo/rest/v1/feed?start_date=2002-10-22&end_date=2002-10-22&detailed=true&api_key=t0TVs3DtDT2H8Oy2Zy8m2eVrNsAVKAexjcZXUckd"
  },
  "element_count" : 3,
  "near_earth_objects" : {
    "2002-10-22" : [ {
      "links" : {
        "self" : "https://api.nasa.gov/neo/rest/v1/neo/3603226?api_key=t0TVs3DtDT2H8Oy2Zy8m2eVrNsAVKAexjcZXUckd"
      },
      "neo_reference_id" : "3603226",
      "name" : "(2012 HC34)",
      "nasa_jpl_url" : "http://ssd.jpl.nasa.gov/sbdb.cgi?sstr=3603226",
      "absolute_magnitude_h" : 20.3,
      "estimated_diameter" : {
        "kilometers" : {
          "estimated_diameter_min" : 0.2315021222,
          "estimated_diameter_max" : 0.5176544822
        },
        "meters" : {
          "estimated_diameter_min" : 231.5021222103,
          "estimated_diameter_max" : 517.6544821978
        },
        "miles" : {
          "estimated_diameter_min" : 0.1438487052,
          "estimated_diameter_max" : 0.3216554833
        },
        "feet" : {
          "estimated_diameter_min" : 759.5214226325,
          "estimated_diameter_max" : 1698.3415313737
        }
      },
      "is_potentially_hazardous_asteroid" : false,
      "close_approach_data" : [ {
        "close_approach_date" : "2002-10-22",
        "epoch_date_close_approach" : 1035270000000,
        "relative_velocity" : {
          "kilometers_per_second" : "18.9420122308",
          "kilometers_per_hour" : "68191.2440307734",
          "miles_per_hour" : "42371.3871590103"
        },
        "miss_distance" : {
          "astronomical" : "0.4268409285",
          "lunar" : "166.0411224365",
          "kilometers" : "63854496",
          "miles" : "39677344"
        },
        "orbiting_body" : "Earth"
      } ],
      "orbital_data" : {
        "orbit_id" : "20",
        "orbit_determination_date" : "2017-05-16 06:22:30",
        "orbit_uncertainty" : "0",
        "minimum_orbit_intersection" : ".42161",
        "jupiter_tisserand_invariant" : "3.693",
        "epoch_osculation" : "2458000.5",
        "eccentricity" : ".3922990967844099",
        "semi_major_axis" : "1.8527257259447",
        "inclination" : "36.32754126280618",
        "ascending_node_longitude" : "45.16230622947657",
        "orbital_period" : "921.1176937993763",
        "perihelion_distance" : "1.125903097067354",
        "perihelion_argument" : "275.024272923849",
        "aphelion_distance" : "2.579548354822045",
        "perihelion_time" : "2458015.729726131305",
        "mean_anomaly" : "354.0477732170631",
        "mean_motion" : ".3908295350565806",
        "equinox" : "J2000"
      }
    }, {
      "links" : {
        "self" : "https://api.nasa.gov/neo/rest/v1/neo/3613389?api_key=t0TVs3DtDT2H8Oy2Zy8m2eVrNsAVKAexjcZXUckd"
      },
      "neo_reference_id" : "3613389",
      "name" : "(2012 UU68)",
      "nasa_jpl_url" : "http://ssd.jpl.nasa.gov/sbdb.cgi?sstr=3613389",
      "absolute_magnitude_h" : 23.0,
      "estimated_diameter" : {
        "kilometers" : {
          "estimated_diameter_min" : 0.0667659413,
          "estimated_diameter_max" : 0.1492931834
        },
        "meters" : {
          "estimated_diameter_min" : 66.7659413495,
          "estimated_diameter_max" : 149.2931834393
        },
        "miles" : {
          "estimated_diameter_min" : 0.0414864197,
          "estimated_diameter_max" : 0.0927664547
        },
        "feet" : {
          "estimated_diameter_min" : 219.0483710172,
          "estimated_diameter_max" : 489.807047955
        }
      },
      "is_potentially_hazardous_asteroid" : false,
      "close_approach_data" : [ {
        "close_approach_date" : "2002-10-22",
        "epoch_date_close_approach" : 1035270000000,
        "relative_velocity" : {
          "kilometers_per_second" : "15.3663838733",
          "kilometers_per_hour" : "55318.9819439959",
          "miles_per_hour" : "34373.0640862568"
        },
        "miss_distance" : {
          "astronomical" : "0.289672551",
          "lunar" : "112.6826248169",
          "kilometers" : "43334396",
          "miles" : "26926746"
        },
        "orbiting_body" : "Earth"
      } ],
      "orbital_data" : {
        "orbit_id" : "8",
        "orbit_determination_date" : "2017-04-06 08:48:22",
        "orbit_uncertainty" : "6",
        "minimum_orbit_intersection" : ".00548085",
        "jupiter_tisserand_invariant" : "6.360",
        "epoch_osculation" : "2458000.5",
        "eccentricity" : ".2286203426609585",
        "semi_major_axis" : ".9398655832203742",
        "inclination" : "5.455717339594915",
        "ascending_node_longitude" : "221.0654597209069",
        "orbital_period" : "332.8105207456754",
        "perihelion_distance" : ".7249931915292905",
        "perihelion_argument" : "292.9506843238622",
        "aphelion_distance" : "1.154737974911458",
        "perihelion_time" : "2457975.939220680624",
        "mean_anomaly" : "26.56731083850574",
        "mean_motion" : "1.081696573754356",
        "equinox" : "J2000"
      }
    }, {
      "links" : {
        "self" : "https://api.nasa.gov/neo/rest/v1/neo/2495168?api_key=t0TVs3DtDT2H8Oy2Zy8m2eVrNsAVKAexjcZXUckd"
      },
      "neo_reference_id" : "2495168",
      "name" : "495168 (2012 HC34)",
      "nasa_jpl_url" : "http://ssd.jpl.nasa.gov/sbdb.cgi?sstr=2495168",
      "absolute_magnitude_h" : 20.3,
      "estimated_diameter" : {
        "kilometers" : {
          "estimated_diameter_min" : 0.2315021222,
          "estimated_diameter_max" : 0.5176544822
        },
        "meters" : {
          "estimated_diameter_min" : 231.5021222103,
          "estimated_diameter_max" : 517.6544821978
        },
        "miles" : {
          "estimated_diameter_min" : 0.1438487052,
          "estimated_diameter_max" : 0.3216554833
        },
        "feet" : {
          "estimated_diameter_min" : 759.5214226325,
          "estimated_diameter_max" : 1698.3415313737
        }
      },
      "is_potentially_hazardous_asteroid" : false,
      "close_approach_data" : [ {
        "close_approach_date" : "2002-10-22",
        "epoch_date_close_approach" : 1035270000000,
        "relative_velocity" : {
          "kilometers_per_second" : "18.9420121871",
          "kilometers_per_hour" : "68191.24387342",
          "miles_per_hour" : "42371.387061237"
        },
        "miss_distance" : {
          "astronomical" : "0.4268409286",
          "lunar" : "166.0411224365",
          "kilometers" : "63854496",
          "miles" : "39677344"
        },
        "orbiting_body" : "Earth"
      } ],
      "orbital_data" : {
        "orbit_id" : "21",
        "orbit_determination_date" : "2017-06-12 13:24:40",
        "orbit_uncertainty" : "0",
        "minimum_orbit_intersection" : ".42161",
        "jupiter_tisserand_invariant" : "3.693",
        "epoch_osculation" : "2458000.5",
        "eccentricity" : ".3922990967973123",
        "semi_major_axis" : "1.852725725956279",
        "inclination" : "36.32754126235442",
        "ascending_node_longitude" : "45.1623062292467",
        "orbital_period" : "921.1176938080113",
        "perihelion_distance" : "1.125903097050486",
        "perihelion_argument" : "275.0242729257336",
        "aphelion_distance" : "2.579548354862072",
        "perihelion_time" : "2458015.729726157928",
        "mean_anomaly" : "354.0477732067137",
        "mean_motion" : ".3908295350529168",
        "equinox" : "J2000"
      }
    } ]
  }
}